     2              NAVIGATION DATA                         RINEX VERSION / TYPE
CCRINEXN V1.6.0 UX  CDDIS               08-MAR-21 06:26     PGM / RUN BY / DATE 
IGS BROADCAST EPHEMERIS FILE                                COMMENT             
    0.1024D-07  0.0000D+00 -0.5960D-07  0.0000D+00          ION ALPHA           
    0.9011D+05  0.0000D+00 -0.1966D+06  0.0000D+00          ION BETA            
    0.279396772385D-08 0.142108547152D-13   319488     2148 DELTA-UTC: A0,A1,T,W
    18                                                      LEAP SECONDS        
                                                            END OF HEADER       
31 21  3  8  0  0  0.0-0.104256439954D-03-0.227373675443D-11 0.000000000000D+00
    0.530000000000D+02 0.136875000000D+02 0.483520140555D-08 0.209193044336D+00
    0.869855284691D-06 0.997161772102D-02 0.679865479469D-05 0.515374180031D+04
    0.864000000000D+05 0.182539224625D-06 0.109928777960D+01 0.558793544769D-07
    0.956093465176D+00 0.244937500000D+03 0.251842207542D+00-0.821248494011D-08
   -0.135719938994D-09 0.100000000000D+01 0.214800000000D+04 0.000000000000D+00
    0.200000000000D+01 0.000000000000D+00-0.130385160446D-07 0.530000000000D+02
    0.792180000000D+05 0.400000000000D+01 0.000000000000D+00 0.000000000000D+00
32 21  3  8  0  0  0.0 0.207126140595D-04 0.795807864051D-12 0.000000000000D+00
    0.103000000000D+03-0.650000000000D+01 0.451304512930D-08-0.202637361857D+01
   -0.296160578728D-06 0.468102993909D-02 0.876747071743D-05 0.515364079666D+04
    0.864000000000D+05 0.000000000000D+00 0.195747435952D-01-0.111758708954D-06
    0.957615881597D+00 0.210312500000D+03-0.242131928162D+01-0.778389565907D-08
    0.392516349881D-09 0.100000000000D+01 0.214800000000D+04 0.000000000000D+00
    0.200000000000D+01 0.000000000000D+00 0.465661287308D-09 0.103000000000D+03
    0.792180000000D+05 0.400000000000D+01 0.000000000000D+00 0.000000000000D+00
 2 21  3  8  1 59 44.0-0.583929941058D-03-0.375166564481D-11 0.000000000000D+00
    0.000000000000D+00-0.367187500000D+02 0.459411993496D-08 0.262995884699D+01
   -0.183284282684D-05 0.203553396277D-01 0.213459134102D-05 0.515363320923D+04
    0.935840000000D+05 0.273808836937D-06-0.214091949560D+01-0.221654772759D-06
    0.962093797766D+00 0.332531250000D+03-0.153723422114D+01-0.802962018020D-08
   -0.155720772110D-09 0.100000000000D+01 0.214800000000D+04 0.000000000000D+00
    0.200000000000D+01 0.000000000000D+00-0.176951289177D-07 0.000000000000D+00
    0.867960000000D+05 0.400000000000D+01 0.000000000000D+00 0.000000000000D+00
 8 21  3  8  1 59 44.0-0.128960236907D-04-0.147792889038D-11 0.000000000000D+00
    0.500000000000D+02 0.870312500000D+02 0.442447001122D-08-0.168672866981D+01
    0.422447919846D-05 0.627556513064D-02 0.556558370590D-05 0.515356813049D+04
    0.935840000000D+05 0.186264514923D-08-0.313201684681D+01-0.137835741043D-06
    0.968269355757D+00 0.277281250000D+03-0.699491061182D-02-0.817498337801D-08
    0.285369029623D-09 0.100000000000D+01 0.214800000000D+04 0.000000000000D+00
    0.200000000000D+01 0.000000000000D+00 0.512227416039D-08 0.500000000000D+02
    0.864180000000D+05 0.400000000000D+01 0.000000000000D+00 0.000000000000D+00
 9 21  3  8  1 59 44.0-0.329162925482D-03-0.329691829393D-11 0.000000000000D+00
    0.800000000000D+01-0.156250000000D+01 0.470412451710D-08-0.126007384046D+01
   -0.100582838059D-06 0.189648347441D-02 0.909529626370D-05 0.515355260086D+04
    0.935840000000D+05 0.186264514923D-08 0.983617693911D-02 0.186264514923D-07
    0.953609522441D+00 0.200750000000D+03 0.182723707980D+01-0.799176146037D-08
    0.318941856637D-09 0.100000000000D+01 0.214800000000D+04 0.000000000000D+00
    0.200000000000D+01 0.000000000000D+00 0.139698386192D-08 0.800000000000D+01
    0.898980000000D+05 0.400000000000D+01 0.000000000000D+00 0.000000000000D+00
21 21  3  8  1 59 44.0 0.101346056908D-03 0.306954461848D-11 0.000000000000D+00
    0.500000000000D+01-0.375625000000D+02 0.492056210402D-08-0.152243851638D+01
   -0.148266553879D-05 0.242642437806D-01 0.322610139847D-05 0.515371253014D+04
    0.935840000000D+05-0.486150383949D-06-0.214032316192D+01 0.443309545517D-06
    0.956208879172D+00 0.321218750000D+03-0.117779668565D+01-0.859035782288D-08
    0.785747015231D-11 0.100000000000D+01 0.214800000000D+04 0.000000000000D+00
    0.200000000000D+01 0.000000000000D+00-0.102445483208D-07 0.500000000000D+01
    0.870060000000D+05 0.400000000000D+01 0.000000000000D+00 0.000000000000D+00
22 21  3  8  1 59 44.0-0.665111001581D-03 0.795807864051D-11 0.000000000000D+00
    0.900000000000D+01-0.112937500000D+03 0.488163191099D-08-0.272074395299D+01
   -0.577233731747D-05 0.702553091105D-02 0.814162194729D-05 0.515359696198D+04
    0.935840000000D+05-0.372529029846D-08-0.111666227392D+01 0.119209289551D-06
    0.933819631873D+00 0.205531250000D+03-0.102580395180D+01-0.810140888477D-08
    0.142863093678D-11 0.100000000000D+01 0.214800000000D+04 0.000000000000D+00
    0.200000000000D+01 0.000000000000D+00-0.181607902050D-07 0.900000000000D+01
    0.864180000000D+05 0.400000000000D+01 0.000000000000D+00 0.000000000000D+00
24 21  3  8  1 59 44.0 0.137882307172D-05-0.568434188608D-12 0.000000000000D+00
    0.240000000000D+02 0.116875000000D+02 0.516664378288D-08 0.273313641835D+01
    0.530853867531D-06 0.109519243706D-01 0.646524131298D-05 0.515360754204D+04
    0.935840000000D+05-0.391155481338D-07 0.100553262513D+01-0.117346644402D-06
    0.935188080554D+00 0.240843750000D+03 0.733769903068D+00-0.818819821418D-08
   -0.120004998690D-09 0.100000000000D+01 0.214800000000D+04 0.000000000000D+00
    0.200000000000D+01 0.000000000000D+00 0.279396772385D-08 0.240000000000D+02
    0.864550000000D+05 0.400000000000D+01 0.000000000000D+00 0.000000000000D+00
32 21  3  8  1 59 44.0 0.207177363336D-04 0.795807864051D-12 0.000000000000D+00
    0.300000000000D+01-0.593750000000D+00 0.467162316328D-08-0.978687291328D+00
   -0.856816768646D-07 0.468111271039D-02 0.866316258907D-05 0.515363920784D+04
    0.935840000000D+05 0.173225998878D-06 0.195192317058D-01 0.894069671631D-07
    0.957617495195D+00 0.212625000000D+03-0.242113778030D+01-0.797533220460D-08
    0.243224416987D-09 0.100000000000D+01 0.214800000000D+04 0.000000000000D+00
    0.200000000000D+01 0.000000000000D+00 0.465661287308D-09 0.300000000000D+01
    0.864180000000D+05 0.400000000000D+01 0.000000000000D+00 0.000000000000D+00
 1 21  3  8  2  0  0.0 0.746251549572D-03-0.852651282912D-11 0.000000000000D+00
    0.230000000000D+02-0.545312500000D+02 0.417517391275D-08 0.238141949154D+01
   -0.299327075481D-05 0.104861881118D-01 0.271014869213D-05 0.515369070244D+04
    0.936000000000D+05-0.707805156708D-07-0.205875379760D+01-0.145286321640D-06
    0.983298510055D+00 0.340687500000D+03 0.821877068765D+00-0.800676208521D-08
   -0.503592405216D-10 0.100000000000D+01 0.214800000000D+04 0.000000000000D+00
    0.200000000000D+01 0.000000000000D+00 0.465661287308D-08 0.230000000000D+02
    0.864180000000D+05 0.400000000000D+01 0.000000000000D+00 0.000000000000D+00
 2 21  3  8  2  0  0.0-0.583929009736D-03-0.375166564481D-11 0.000000000000D+00
    0.940000000000D+02-0.367187500000D+02 0.459411993496D-08 0.263229277040D+01
   -0.183284282684D-05 0.203553368338D-01 0.213459134102D-05 0.515363320351D+04
    0.936000000000D+05 0.273808836937D-06-0.214091962288D+01-0.219792127609D-06
    0.962093815321D+00 0.332531250000D+03-0.153723430306D+01-0.802962018020D-08
   -0.155720772110D-09 0.100000000000D+01 0.214800000000D+04 0.000000000000D+00
    0.280000000000D+01 0.000000000000D+00-0.176951289177D-07 0.940000000000D+02
    0.864180000000D+05 0.400000000000D+01 0.000000000000D+00 0.000000000000D+00
 3 21  3  8  2  0  0.0-0.101954676211D-03-0.104591890704D-10 0.000000000000D+00
    0.590000000000D+02-0.101093750000D+03 0.420410368922D-08 0.126381301957D+01
   -0.523217022419D-05 0.328696449287D-02 0.898167490959D-05 0.515364655685D+04
    0.936000000000D+05-0.540167093277D-07-0.102002213090D+01 0.856816768646D-07
    0.968430600050D+00 0.210468750000D+03 0.836177239281D+00-0.788425698238D-08
   -0.171435712414D-10 0.100000000000D+01 0.214800000000D+04 0.000000000000D+00
    0.200000000000D+01 0.000000000000D+00 0.186264514923D-08 0.590000000000D+02
    0.864180000000D+05 0.400000000000D+01 0.000000000000D+00 0.000000000000D+00
 4 21  3  8  2  0  0.0-0.184817239642D-03-0.238742359215D-11 0.000000000000D+00
    0.219000000000D+03-0.125000000000D+01 0.449447292712D-08-0.216987288266D+01
   -0.124797224999D-06 0.111368054058D-02 0.898540019989D-05 0.515376883507D+04
    0.936000000000D+05-0.745058059692D-08 0.600022579635D-01 0.335276126862D-07
    0.960775865108D+00 0.207000000000D+03-0.302236260649D+01-0.783175479545D-08
    0.339657005220D-09 0.100000000000D+01 0.214800000000D+04 0.000000000000D+00
    0.200000000000D+01 0.000000000000D+00-0.419095158577D-08 0.987000000000D+03
    0.864180000000D+05 0.400000000000D+01 0.000000000000D+00 0.000000000000D+00
 5 21  3  8  2  0  0.0-0.356035307050D-04-0.102318153950D-11 0.000000000000D+00
    0.200000000000D+02-0.890937500000D+02 0.452411701906D-08-0.111200767529D+01
   -0.467896461487D-05 0.597893120721D-02 0.874325633049D-05 0.515383364105D+04
    0.936000000000D+05 0.126659870148D-06-0.105579801781D+01 0.104308128357D-06
    0.955354924150D+00 0.207718750000D+03 0.880516308399D+00-0.803426323074D-08
   -0.846463830045D-10 0.100000000000D+01 0.214800000000D+04 0.000000000000D+00
    0.200000000000D+01 0.000000000000D+00-0.111758708954D-07 0.200000000000D+02
    0.886980000000D+05 0.400000000000D+01 0.000000000000D+00 0.000000000000D+00
